{
  "type": "FeatureCollection",
  "features": [
    {
      "type": "Feature",
      "properties": {
        "norad_id": 49809,
        "name": "GSAT0223 (GALILEO 27)",
        "group": "gnss",
        "lat": 36.13740284388514,
        "lon": 14.382876130852948,
        "alt_km": 23228.76515375705,
        "timestamp": "2025-12-27T04:40:45.749595+00:00",
        "meta_object_name": "GSAT0223 (GALILEO 27)",
        "meta_object_id": "2021-116A",
        "meta_epoch": "2025-12-22T17:26:14.878176",
        "meta_mean_motion": 1.70475871,
        "meta_eccentricity": 0.000441,
        "meta_inclination": 57.2174,
        "meta_ra_of_asc_node": 346.4438,
        "meta_arg_of_pericenter": 255.815,
        "meta_mean_anomaly": 286.3499,
        "meta_ephemeris_type": 0,
        "meta_classification_type": "U",
        "meta_norad_cat_id": 49809,
        "meta_element_set_no": 999,
        "meta_rev_at_epoch": 2517,
        "meta_bstar": 0,
        "meta_mean_motion_dot": -6.4e-07,
        "meta_mean_motion_ddot": 0,
        "tle_line1": "1 49809U 21116A   25356.72656109 -.00000064  00000+0  00000+0 0  9997",
        "tle_line2": "2 49809  57.2174 346.4438 0004410 255.8150 286.3499  1.70475871 25171"
      },
      "geometry": {
        "type": "Point",
        "coordinates": [
          14.382876130852948,
          36.13740284388514
        ]
      }
    },
    {
      "type": "Feature",
      "properties": {
        "norad_id": 49810,
        "name": "GSAT0224 (GALILEO 28)",
        "group": "gnss",
        "lat": 19.077389361408326,
        "lon": 153.43535884343672,
        "alt_km": 23222.40964977345,
        "timestamp": "2025-12-27T04:40:45.749606+00:00",
        "meta_object_name": "GSAT0224 (GALILEO 28)",
        "meta_object_id": "2021-116B",
        "meta_epoch": "2025-12-23T03:00:59.528736",
        "meta_mean_motion": 1.70475912,
        "meta_eccentricity": 0.00037519,
        "meta_inclination": 57.2181,
        "meta_ra_of_asc_node": 346.4317,
        "meta_arg_of_pericenter": 260.8078,
        "meta_mean_anomaly": 278.9053,
        "meta_ephemeris_type": 0,
        "meta_classification_type": "U",
        "meta_norad_cat_id": 49810,
        "meta_element_set_no": 999,
        "meta_rev_at_epoch": 2520,
        "meta_bstar": 0,
        "meta_mean_motion_dot": -6.3e-07,
        "meta_mean_motion_ddot": 0,
        "tle_line1": "1 49810U 21116B   25357.12568899 -.00000063  00000+0  00000+0 0  9991",
        "tle_line2": "2 49810  57.2181 346.4317 0003751 260.8078 278.9053  1.70475912 25202"
      },
      "geometry": {
        "type": "Point",
        "coordinates": [
          153.43535884343672,
          19.077389361408326
        ]
      }
    },
    {
      "type": "Feature",
      "properties": {
        "norad_id": 52984,
        "name": "COSMOS 2557 (706K)",
        "group": "gnss",
        "lat": -46.524559924482126,
        "lon": 170.87939393096775,
        "alt_km": 19110.944577658043,
        "timestamp": "2025-12-27T04:40:45.749621+00:00",
        "meta_object_name": "COSMOS 2557 (706K)",
        "meta_object_id": "2022-075A",
        "meta_epoch": "2025-12-25T22:50:27.414816",
        "meta_mean_motion": 2.13102015,
        "meta_eccentricity": 0.00135372,
        "meta_inclination": 64.4024,
        "meta_ra_of_asc_node": 320.5875,
        "meta_arg_of_pericenter": 278.4992,
        "meta_mean_anomaly": 81.3515,
        "meta_ephemeris_type": 0,
        "meta_classification_type": "U",
        "meta_norad_cat_id": 52984,
        "meta_element_set_no": 999,
        "meta_rev_at_epoch": 2702,
        "meta_bstar": 0,
        "meta_mean_motion_dot": -3.5e-07,
        "meta_mean_motion_ddot": 0,
        "tle_line1": "1 52984U 22075A   25359.95170619 -.00000035  00000+0  00000+0 0  9993",
        "tle_line2": "2 52984  64.4024 320.5875 0013537 278.4992  81.3515  2.13102015 27029"
      },
      "geometry": {
        "type": "Point",
        "coordinates": [
          170.87939393096775,
          -46.524559924482126
        ]
      }
    },
    {
      "type": "Feature",
      "properties": {
        "norad_id": 54031,
        "name": "COSMOS 2559 (707K)",
        "group": "gnss",
        "lat": 11.208109142646752,
        "lon": -33.926788909778,
        "alt_km": 19158.225242494915,
        "timestamp": "2025-12-27T04:40:45.749634+00:00",
        "meta_object_name": "COSMOS 2559 (707K)",
        "meta_object_id": "2022-130A",
        "meta_epoch": "2025-12-26T05:45:52.034112",
        "meta_mean_motion": 2.13101192,
        "meta_eccentricity": 0.0011465,
        "meta_inclination": 64.3745,
        "meta_ra_of_asc_node": 320.6663,
        "meta_arg_of_pericenter": 191.5639,
        "meta_mean_anomaly": 168.4144,
        "meta_ephemeris_type": 0,
        "meta_classification_type": "U",
        "meta_norad_cat_id": 54031,
        "meta_element_set_no": 999,
        "meta_rev_at_epoch": 2500,
        "meta_bstar": 0,
        "meta_mean_motion_dot": -3.6e-07,
        "meta_mean_motion_ddot": 0,
        "tle_line1": "1 54031U 22130A   25360.24018558 -.00000036  00000+0  00000+0 0  9998",
        "tle_line2": "2 54031  64.3745 320.6663 0011465 191.5639 168.4144  2.13101192 25006"
      },
      "geometry": {
        "type": "Point",
        "coordinates": [
          -33.926788909778,
          11.208109142646752
        ]
      }
    },
    {
      "type": "Feature",
      "properties": {
        "norad_id": 54377,
        "name": "COSMOS 2564 (761)",
        "group": "gnss",
        "lat": 42.22099459694258,
        "lon": -6.956700762238727,
        "alt_km": 19118.111075179284,
        "timestamp": "2025-12-27T04:40:45.749645+00:00",
        "meta_object_name": "COSMOS 2564 (761)",
        "meta_object_id": "2022-161A",
        "meta_epoch": "2025-12-26T13:17:06.645696",
        "meta_mean_motion": 2.13101966,
        "meta_eccentricity": 0.0008542,
        "meta_inclination": 64.7391,
        "meta_ra_of_asc_node": 198.4399,
        "meta_arg_of_pericenter": 203.4859,
        "meta_mean_anomaly": 156.5301,
        "meta_ephemeris_type": 0,
        "meta_classification_type": "U",
        "meta_norad_cat_id": 54377,
        "meta_element_set_no": 999,
        "meta_rev_at_epoch": 2395,
        "meta_bstar": 0,
        "meta_mean_motion_dot": 1.15e-06,
        "meta_mean_motion_ddot": 0,
        "tle_line1": "1 54377U 22161A   25360.55354914  .00000115  00000+0  00000+0 0  9995",
        "tle_line2": "2 54377  64.7391 198.4399 0008542 203.4859 156.5301  2.13101966 23950"
      },
      "geometry": {
        "type": "Point",
        "coordinates": [
          -6.956700762238727,
          42.22099459694258
        ]
      }
    },
    {
      "type": "Feature",
      "properties": {
        "norad_id": 55268,
        "name": "GPS BIII-6  (PRN 28)",
        "group": "gnss",
        "lat": -0.20324039983038134,
        "lon": -24.589031292434786,
        "alt_km": 20193.105373737588,
        "timestamp": "2025-12-27T04:40:45.749656+00:00",
        "meta_object_name": "GPS BIII-6  (PRN 28)",
        "meta_object_id": "2023-009A",
        "meta_epoch": "2025-12-22T10:59:58.065216",
        "meta_mean_motion": 2.00554901,
        "meta_eccentricity": 0.00037047,
        "meta_inclination": 55.1065,
        "meta_ra_of_asc_node": 155.4638,
        "meta_arg_of_pericenter": 355.7912,
        "meta_mean_anomaly": 4.4255,
        "meta_ephemeris_type": 0,
        "meta_classification_type": "U",
        "meta_norad_cat_id": 55268,
        "meta_element_set_no": 999,
        "meta_rev_at_epoch": 2170,
        "meta_bstar": 0,
        "meta_mean_motion_dot": 7.4e-07,
        "meta_mean_motion_ddot": 0,
        "tle_line1": "1 55268U 23009A   25356.45831094  .00000074  00000+0  00000+0 0  9994",
        "tle_line2": "2 55268  55.1065 155.4638 0003704 355.7912   4.4255  2.00554901 21704"
      },
      "geometry": {
        "type": "Point",
        "coordinates": [
          -24.589031292434786,
          -0.20324039983038134
        ]
      }
    },
    {
      "type": "Feature",
      "properties": {
        "norad_id": 56564,
        "name": "BEIDOU-3 G4 (C62)",
        "group": "gnss",
        "lat": 0.29503169814015245,
        "lon": -33.83014487241422,
        "alt_km": 35795.652494193855,
        "timestamp": "2025-12-27T04:40:45.749668+00:00",
        "meta_object_name": "BEIDOU-3 G4 (C62)",
        "meta_object_id": "2023-066A",
        "meta_epoch": "2025-12-26T22:21:21.485952",
        "meta_mean_motion": 1.00270564,
        "meta_eccentricity": 0.00024962,
        "meta_inclination": 0.7854,
        "meta_ra_of_asc_node": 303.1583,
        "meta_arg_of_pericenter": 231.0428,
        "meta_mean_anomaly": 56.8567,
        "meta_ephemeris_type": 0,
        "meta_classification_type": "U",
        "meta_norad_cat_id": 56564,
        "meta_element_set_no": 999,
        "meta_rev_at_epoch": 966,
        "meta_bstar": 0,
        "meta_mean_motion_dot": -8.9e-07,
        "meta_mean_motion_ddot": 0,
        "tle_line1": "1 56564U 23066A   25360.93149868 -.00000089  00000+0  00000+0 0  9993",
        "tle_line2": "2 56564   0.7854 303.1583 0002496 231.0428  56.8567  1.00270564  9669"
      },
      "geometry": {
        "type": "Point",
        "coordinates": [
          -33.83014487241422,
          0.29503169814015245
        ]
      }
    }
  ]
}